{
  "type": "FeatureCollection",
  "features": [
    {
      "type": "Feature",
      "properties": {
        "norad_id": 40228,
        "name": "COSMOS 2251 DEB",
        "group": "cosmos-2251-debris",
        "lat": -53.224794779562856,
        "lon": -103.32647819476738,
        "alt_km": 748.7725865204211,
        "timestamp": "2025-12-02T15:49:07.592746+00:00",
        "meta_object_name": "COSMOS 2251 DEB",
        "meta_object_id": "1993-036BVH",
        "meta_epoch": "2025-11-30T14:54:47.611296",
        "meta_mean_motion": 14.40947575,
        "meta_eccentricity": 0.0023645,
        "meta_inclination": 74.0546,
        "meta_ra_of_asc_node": 282.9283,
        "meta_arg_of_pericenter": 346.4377,
        "meta_mean_anomaly": 191.0914,
        "meta_ephemeris_type": 0,
        "meta_classification_type": "U",
        "meta_norad_cat_id": 40228,
        "meta_element_set_no": 999,
        "meta_rev_at_epoch": 58746,
        "meta_bstar": 0.00037702,
        "meta_mean_motion_dot": 1.188e-05,
        "meta_mean_motion_ddot": 0,
        "tle_line1": "1 40228U 93036BVH 25334.62138439  .00001188  00000+0  37702-3 0  9999",
        "tle_line2": "2 40228  74.0546 282.9283 0023645 346.4377 191.0914 14.40947575587463"
      },
      "geometry": {
        "type": "Point",
        "coordinates": [
          -103.32647819476738,
          -53.224794779562856
        ]
      }
    },
    {
      "type": "Feature",
      "properties": {
        "norad_id": 40230,
        "name": "COSMOS 2251 DEB",
        "group": "cosmos-2251-debris",
        "lat": 14.00533148795579,
        "lon": 61.69486866523728,
        "alt_km": 739.0963123573465,
        "timestamp": "2025-12-02T15:49:07.592757+00:00",
        "meta_object_name": "COSMOS 2251 DEB",
        "meta_object_id": "1993-036BVK",
        "meta_epoch": "2025-12-01T11:25:53.279904",
        "meta_mean_motion": 14.49219846,
        "meta_eccentricity": 0.00191733,
        "meta_inclination": 74.0459,
        "meta_ra_of_asc_node": 248.0026,
        "meta_arg_of_pericenter": 306.9288,
        "meta_mean_anomaly": 170.1054,
        "meta_ephemeris_type": 0,
        "meta_classification_type": "U",
        "meta_norad_cat_id": 40230,
        "meta_element_set_no": 999,
        "meta_rev_at_epoch": 58808,
        "meta_bstar": 0.00090515824,
        "meta_mean_motion_dot": 3.43e-05,
        "meta_mean_motion_ddot": 0,
        "tle_line1": "1 40230U 93036BVK 25335.47631111  .00003430  00000+0  90516-3 0  9995",
        "tle_line2": "2 40230  74.0459 248.0026 0019173 306.9288 170.1054 14.49219846588084"
      },
      "geometry": {
        "type": "Point",
        "coordinates": [
          61.69486866523728,
          14.00533148795579
        ]
      }
    },
    {
      "type": "Feature",
      "properties": {
        "norad_id": 40233,
        "name": "COSMOS 2251 DEB",
        "group": "cosmos-2251-debris",
        "lat": 20.289927890536628,
        "lon": 128.51899686854108,
        "alt_km": 731.6400331625382,
        "timestamp": "2025-12-02T15:49:07.592767+00:00",
        "meta_object_name": "COSMOS 2251 DEB",
        "meta_object_id": "1993-036BVN",
        "meta_epoch": "2025-11-29T16:55:06.040992",
        "meta_mean_motion": 14.58149893,
        "meta_eccentricity": 0.00465907,
        "meta_inclination": 73.9381,
        "meta_ra_of_asc_node": 128.0565,
        "meta_arg_of_pericenter": 205.1304,
        "meta_mean_anomaly": 154.7594,
        "meta_ephemeris_type": 0,
        "meta_classification_type": "U",
        "meta_norad_cat_id": 40233,
        "meta_element_set_no": 999,
        "meta_rev_at_epoch": 58947,
        "meta_bstar": 0.0013059078,
        "meta_mean_motion_dot": 6.085e-05,
        "meta_mean_motion_ddot": 0,
        "tle_line1": "1 40233U 93036BVN 25333.70493103  .00006085  00000+0  13059-2 0  9994",
        "tle_line2": "2 40233  73.9381 128.0565 0046590 205.1304 154.7594 14.58149893589471"
      },
      "geometry": {
        "type": "Point",
        "coordinates": [
          128.51899686854108,
          20.289927890536628
        ]
      }
    },
    {
      "type": "Feature",
      "properties": {
        "norad_id": 40236,
        "name": "COSMOS 2251 DEB",
        "group": "cosmos-2251-debris",
        "lat": -54.687055174537726,
        "lon": 4.316507402590494,
        "alt_km": 1557.7028075870821,
        "timestamp": "2025-12-02T15:49:07.592777+00:00",
        "meta_object_name": "COSMOS 2251 DEB",
        "meta_object_id": "1993-036BVR",
        "meta_epoch": "2025-11-24T19:56:56.097312",
        "meta_mean_motion": 13.24604738,
        "meta_eccentricity": 0.0536049,
        "meta_inclination": 73.5357,
        "meta_ra_of_asc_node": 171.9764,
        "meta_arg_of_pericenter": 53.9086,
        "meta_mean_anomaly": 311.0422,
        "meta_ephemeris_type": 0,
        "meta_classification_type": "U",
        "meta_norad_cat_id": 40236,
        "meta_element_set_no": 999,
        "meta_rev_at_epoch": 53387,
        "meta_bstar": 0.0012678,
        "meta_mean_motion_dot": 1.163e-05,
        "meta_mean_motion_ddot": 0,
        "tle_line1": "1 40236U 93036BVR 25328.83120483  .00001163  00000+0  12678-2 0  9991",
        "tle_line2": "2 40236  73.5357 171.9764 0536049  53.9086 311.0422 13.24604738533877"
      },
      "geometry": {
        "type": "Point",
        "coordinates": [
          4.316507402590494,
          -54.687055174537726
        ]
      }
    },
    {
      "type": "Feature",
      "properties": {
        "norad_id": 40238,
        "name": "COSMOS 2251 DEB",
        "group": "cosmos-2251-debris",
        "lat": -44.66242498019731,
        "lon": 62.59175455066691,
        "alt_km": 1221.1279643943344,
        "timestamp": "2025-12-02T15:49:07.592787+00:00",
        "meta_object_name": "COSMOS 2251 DEB",
        "meta_object_id": "1993-036BVT",
        "meta_epoch": "2025-11-30T22:22:36.240096",
        "meta_mean_motion": 13.25077646,
        "meta_eccentricity": 0.05498623,
        "meta_inclination": 73.9876,
        "meta_ra_of_asc_node": 81.7287,
        "meta_arg_of_pericenter": 56.0291,
        "meta_mean_anomaly": 309.1807,
        "meta_ephemeris_type": 0,
        "meta_classification_type": "U",
        "meta_norad_cat_id": 40238,
        "meta_element_set_no": 999,
        "meta_rev_at_epoch": 53880,
        "meta_bstar": 0.001219224,
        "meta_mean_motion_dot": 1.179e-05,
        "meta_mean_motion_ddot": 0,
        "tle_line1": "1 40238U 93036BVT 25334.93236389  .00001179  00000+0  12192-2 0  9992",
        "tle_line2": "2 40238  73.9876  81.7287 0549862  56.0291 309.1807 13.25077646538802"
      },
      "geometry": {
        "type": "Point",
        "coordinates": [
          62.59175455066691,
          -44.66242498019731
        ]
      }
    },
    {
      "type": "Feature",
      "properties": {
        "norad_id": 40239,
        "name": "COSMOS 2251 DEB",
        "group": "cosmos-2251-debris",
        "lat": -24.798382777874608,
        "lon": 122.74458933321246,
        "alt_km": 746.8218679496458,
        "timestamp": "2025-12-02T15:49:07.592798+00:00",
        "meta_object_name": "COSMOS 2251 DEB",
        "meta_object_id": "1993-036BVU",
        "meta_epoch": "2025-11-29T04:50:38.433408",
        "meta_mean_motion": 14.61895832,
        "meta_eccentricity": 0.00843357,
        "meta_inclination": 74.031,
        "meta_ra_of_asc_node": 301.7592,
        "meta_arg_of_pericenter": 56.7028,
        "meta_mean_anomaly": 320.9905,
        "meta_ephemeris_type": 0,
        "meta_classification_type": "U",
        "meta_norad_cat_id": 40239,
        "meta_element_set_no": 999,
        "meta_rev_at_epoch": 59413,
        "meta_bstar": 0.00044061432,
        "meta_mean_motion_dot": 2.288e-05,
        "meta_mean_motion_ddot": 0,
        "tle_line1": "1 40239U 93036BVU 25333.20183372  .00002288  00000+0  44061-3 0  9998",
        "tle_line2": "2 40239  74.0310 301.7592 0084335  56.7028 320.9905 14.61895832594130"
      },
      "geometry": {
        "type": "Point",
        "coordinates": [
          122.74458933321246,
          -24.798382777874608
        ]
      }
    },
    {
      "type": "Feature",
      "properties": {
        "norad_id": 40792,
        "name": "COSMOS 2251 DEB",
        "group": "cosmos-2251-debris",
        "lat": 9.946319645452801,
        "lon": -115.95632624759541,
        "alt_km": 658.6001909235893,
        "timestamp": "2025-12-02T15:49:07.592808+00:00",
        "meta_object_name": "COSMOS 2251 DEB",
        "meta_object_id": "1993-036BVV",
        "meta_epoch": "2025-11-22T08:06:07.865856",
        "meta_mean_motion": 14.67201811,
        "meta_eccentricity": 0.00172349,
        "meta_inclination": 74.0441,
        "meta_ra_of_asc_node": 86.8266,
        "meta_arg_of_pericenter": 197.5934,
        "meta_mean_anomaly": 193.5273,
        "meta_ephemeris_type": 0,
        "meta_classification_type": "U",
        "meta_norad_cat_id": 40792,
        "meta_element_set_no": 999,
        "meta_rev_at_epoch": 62885,
        "meta_bstar": 0.00160322,
        "meta_mean_motion_dot": 9.026e-05,
        "meta_mean_motion_ddot": 0,
        "tle_line1": "1 40792U 93036BVV 25326.33759104  .00009026  00000+0  16032-2 0  9993",
        "tle_line2": "2 40792  74.0441  86.8266 0017234 197.5934 193.5273 14.67201811628855"
      },
      "geometry": {
        "type": "Point",
        "coordinates": [
          -115.95632624759541,
          9.946319645452801
        ]
      }
    }
  ]
}